[{"OBJECT_NAME":"STARLINK-34387","OBJECT_ID":"2025-123AA","EPOCH":"2025-12-22T19:13:38.256672","MEAN_MOTION":14.98347638,"ECCENTRICITY":0.0003168,"INCLINATION":70.0012,"RA_OF_ASC_NODE":28.2256,"ARG_OF_PERICENTER":273.1466,"MEAN_ANOMALY":86.9331,"EPHEMERIS_TYPE":0,"CLASSIFICATION_TYPE":"U","NORAD_CAT_ID":64315,"ELEMENT_SET_NO":999,"REV_AT_EPOCH":3010,"BSTAR":0.00020449,"MEAN_MOTION_DOT":2.349e-5,"MEAN_MOTION_DDOT":0},{"OBJECT_NAME":"STARLINK-33590","OBJECT_ID":"2025-123AB","EPOCH":"2025-12-22T19:25:55.051680","MEAN_MOTION":14.98286929,"ECCENTRICITY":0.0003465,"INCLINATION":69.9991,"RA_OF_ASC_NODE":28.2468,"ARG_OF_PERICENTER":274.8599,"MEAN_ANOMALY":85.2164,"EPHEMERIS_TYPE":0,"CLASSIFICATION_TYPE":"U","NORAD_CAT_ID":64316,"ELEMENT_SET_NO":999,"REV_AT_EPOCH":3010,"BSTAR":0.0030703,"MEAN_MOTION_DOT":0.00036693,"MEAN_MOTION_DDOT":0},{"OBJECT_NAME":"STARLINK-11736 [DTC]","OBJECT_ID":"2025-124A","EPOCH":"2025-12-22T09:19:47.095392","MEAN_MOTION":15.70867358,"ECCENTRICITY":0.00041668,"INCLINATION":42.9998,"RA_OF_ASC_NODE":135.4602,"ARG_OF_PERICENTER":282.2291,"MEAN_ANOMALY":77.811,"EPHEMERIS_TYPE":0,"CLASSIFICATION_TYPE":"U","NORAD_CAT_ID":64317,"ELEMENT_SET_NO":999,"REV_AT_EPOCH":3067,"BSTAR":0.00029139058,"MEAN_MOTION_DOT":0.00037164,"MEAN_MOTION_DDOT":0},{"OBJECT_NAME":"STARLINK-11673 [DTC]","OBJECT_ID":"2025-124B","EPOCH":"2025-12-22T10:20:45.634272","MEAN_MOTION":15.70887218,"ECCENTRICITY":0.0002324,"INCLINATION":43.0023,"RA_OF_ASC_NODE":134.9051,"ARG_OF_PERICENTER":261.0889,"MEAN_ANOMALY":98.9716,"EPHEMERIS_TYPE":0,"CLASSIFICATION_TYPE":"U","NORAD_CAT_ID":64318,"ELEMENT_SET_NO":999,"REV_AT_EPOCH":3068,"BSTAR":0.0018126634,"MEAN_MOTION_DOT":0.00239445,"MEAN_MOTION_DDOT":0},{"OBJECT_NAME":"STARLINK-11671 [DTC]","OBJECT_ID":"2025-124C","EPOCH":"2025-12-22T02:27:40.719168","MEAN_MOTION":15.70893689,"ECCENTRICITY":0.0001162,"INCLINATION":42.9998,"RA_OF_ASC_NODE":136.7349,"ARG_OF_PERICENTER":296.4915,"MEAN_ANOMALY":63.5834,"EPHEMERIS_TYPE":0,"CLASSIFICATION_TYPE":"U","NORAD_CAT_ID":64319,"ELEMENT_SET_NO":999,"REV_AT_EPOCH":3063,"BSTAR":0.0016221245,"MEAN_MOTION_DOT":0.00213609,"MEAN_MOTION_DDOT":0},{"OBJECT_NAME":"STARLINK-11594 [DTC]","OBJECT_ID":"2025-124D","EPOCH":"2025-12-22T12:30:33.039072","MEAN_MOTION":15.70882836,"ECCENTRICITY":0.00017835,"INCLINATION":42.9997,"RA_OF_ASC_NODE":134.734,"ARG_OF_PERICENTER":271.5719,"MEAN_ANOMALY":88.4944,"EPHEMERIS_TYPE":0,"CLASSIFICATION_TYPE":"U","NORAD_CAT_ID":64320,"ELEMENT_SET_NO":999,"REV_AT_EPOCH":3069,"BSTAR":0.0016173069,"MEAN_MOTION_DOT":0.00212859,"MEAN_MOTION_DDOT":0},{"OBJECT_NAME":"STARLINK-11596 [DTC]","OBJECT_ID":"2025-124E","EPOCH":"2025-12-22T10:43:41.835936","MEAN_MOTION":15.71016951,"ECCENTRICITY":0.00018269,"INCLINATION":43.0009,"RA_OF_ASC_NODE":135.031,"ARG_OF_PERICENTER":244.8984,"MEAN_ANOMALY":115.1694,"EPHEMERIS_TYPE":0,"CLASSIFICATION_TYPE":"U","NORAD_CAT_ID":64321,"ELEMENT_SET_NO":999,"REV_AT_EPOCH":3068,"BSTAR":0.0019925354,"MEAN_MOTION_DOT":0.00265524,"MEAN_MOTION_DDOT":0},{"OBJECT_NAME":"STARLINK-11747 [DTC]","OBJECT_ID":"2025-124F","EPOCH":"2025-12-22T08:56:50.649216","MEAN_MOTION":15.71078822,"ECCENTRICITY":0.00029219,"INCLINATION":43.0003,"RA_OF_ASC_NODE":135.3289,"ARG_OF_PERICENTER":258.213,"MEAN_ANOMALY":101.841,"EPHEMERIS_TYPE":0,"CLASSIFICATION_TYPE":"U","NORAD_CAT_ID":64322,"ELEMENT_SET_NO":999,"REV_AT_EPOCH":3067,"BSTAR":0.0015031647,"MEAN_MOTION_DOT":0.00199125,"MEAN_MOTION_DDOT":0},{"OBJECT_NAME":"STARLINK-11728 [DTC]","OBJECT_ID":"2025-124G","EPOCH":"2025-12-22T18:51:55.368000","MEAN_MOTION":15.71137408,"ECCENTRICITY":0.0001313,"INCLINATION":42.9991,"RA_OF_ASC_NODE":132.3895,"ARG_OF_PERICENTER":60.3796,"MEAN_ANOMALY":299.7202,"EPHEMERIS_TYPE":0,"CLASSIFICATION_TYPE":"U","NORAD_CAT_ID":64323,"ELEMENT_SET_NO":999,"REV_AT_EPOCH":3074,"BSTAR":0.0024245,"MEAN_MOTION_DOT":0.00327286,"MEAN_MOTION_DDOT":0},{"OBJECT_NAME":"STARLINK-11696 [DTC]","OBJECT_ID":"2025-124H","EPOCH":"2025-12-22T02:20:02.592672","MEAN_MOTION":15.70907594,"ECCENTRICITY":0.00012801,"INCLINATION":42.9997,"RA_OF_ASC_NODE":136.6917,"ARG_OF_PERICENTER":26.2174,"MEAN_ANOMALY":333.8758,"EPHEMERIS_TYPE":0,"CLASSIFICATION_TYPE":"U","NORAD_CAT_ID":64324,"ELEMENT_SET_NO":999,"REV_AT_EPOCH":3063,"BSTAR":0.0021131024,"MEAN_MOTION_DOT":0.00280852,"MEAN_MOTION_DDOT":0},{"OBJECT_NAME":"STARLINK-11698 [DTC]","OBJECT_ID":"2025-124J","EPOCH":"2025-12-22T02:28:59.446848","MEAN_MOTION":15.70891352,"ECCENTRICITY":0.00012528,"INCLINATION":43,"RA_OF_ASC_NODE":136.7394,"ARG_OF_PERICENTER":301.5062,"MEAN_ANOMALY":58.5683,"EPHEMERIS_TYPE":0,"CLASSIFICATION_TYPE":"U","NORAD_CAT_ID":64325,"ELEMENT_SET_NO":999,"REV_AT_EPOCH":3063,"BSTAR":0.001613874,"MEAN_MOTION_DOT":0.0021247,"MEAN_MOTION_DDOT":0},{"OBJECT_NAME":"STARLINK-11678 [DTC]","OBJECT_ID":"2025-124K","EPOCH":"2025-12-22T10:36:02.943936","MEAN_MOTION":15.70896152,"ECCENTRICITY":0.00019395,"INCLINATION":43.0005,"RA_OF_ASC_NODE":134.9869,"ARG_OF_PERICENTER":263.7436,"MEAN_ANOMALY":96.3211,"EPHEMERIS_TYPE":0,"CLASSIFICATION_TYPE":"U","NORAD_CAT_ID":64326,"ELEMENT_SET_NO":999,"REV_AT_EPOCH":3068,"BSTAR":0.0015901005,"MEAN_MOTION_DOT":0.00209298,"MEAN_MOTION_DDOT":0},{"OBJECT_NAME":"STARLINK-11674 [DTC]","OBJECT_ID":"2025-124L","EPOCH":"2025-12-22T18:59:33.091008","MEAN_MOTION":15.70908072,"ECCENTRICITY":0.0001226,"INCLINATION":42.9997,"RA_OF_ASC_NODE":132.431,"ARG_OF_PERICENTER":298.3892,"MEAN_ANOMALY":61.6852,"EPHEMERIS_TYPE":0,"CLASSIFICATION_TYPE":"U","NORAD_CAT_ID":64327,"ELEMENT_SET_NO":999,"REV_AT_EPOCH":3074,"BSTAR":0.0023706,"MEAN_MOTION_DOT":0.00316511,"MEAN_MOTION_DDOT":0},{"OBJECT_NAME":"STARLINK-11707 [DTC]","OBJECT_ID":"2025-124M","EPOCH":"2025-12-22T10:13:06.928032","MEAN_MOTION":15.70896285,"ECCENTRICITY":0.00013261,"INCLINATION":42.9979,"RA_OF_ASC_NODE":134.8593,"ARG_OF_PERICENTER":272.0465,"MEAN_ANOMALY":88.0251,"EPHEMERIS_TYPE":0,"CLASSIFICATION_TYPE":"U","NORAD_CAT_ID":64328,"ELEMENT_SET_NO":999,"REV_AT_EPOCH":3068,"BSTAR":0.001559859,"MEAN_MOTION_DOT":0.00205206,"MEAN_MOTION_DDOT":0},{"OBJECT_NAME":"STARLINK-11734 [DTC]","OBJECT_ID":"2025-124N","EPOCH":"2025-12-22T06:00:02.000160","MEAN_MOTION":15.70810826,"ECCENTRICITY":0.00017496,"INCLINATION":43.0005,"RA_OF_ASC_NODE":135.5422,"ARG_OF_PERICENTER":258.913,"MEAN_ANOMALY":336.3974,"EPHEMERIS_TYPE":0,"CLASSIFICATION_TYPE":"U","NORAD_CAT_ID":64329,"ELEMENT_SET_NO":999,"REV_AT_EPOCH":603,"BSTAR":-0.00017852371,"MEAN_MOTION_DOT":-0.00023264,"MEAN_MOTION_DDOT":0},{"OBJECT_NAME":"STARLINK-34252","OBJECT_ID":"2025-124P","EPOCH":"2025-12-22T19:54:30.360384","MEAN_MOTION":15.276111,"ECCENTRICITY":0.000152,"INCLINATION":42.9998,"RA_OF_ASC_NODE":195.9546,"ARG_OF_PERICENTER":280.2839,"MEAN_ANOMALY":79.7841,"EPHEMERIS_TYPE":0,"CLASSIFICATION_TYPE":"U","NORAD_CAT_ID":64330,"ELEMENT_SET_NO":999,"REV_AT_EPOCH":3002,"BSTAR":0.00077306,"MEAN_MOTION_DOT":0.00021092,"MEAN_MOTION_DDOT":0}]
