STARLINK-34387          
1 64315U 25123AA  25356.80113723  .00002349  00000+0  20449-3 0  9997
2 64315  70.0012  28.2256 0003168 273.1466  86.9331 14.98347638 30100
STARLINK-33590          
1 64316U 25123AB  25356.80966495  .00036693  00000+0  30703-2 0  9992
2 64316  69.9991  28.2468 0003465 274.8599  85.2164 14.98286929 30105
STARLINK-11736 [DTC]    
1 64317U 25124A   25356.38873953  .00037164  00000+0  29139-3 0  9999
2 64317  42.9998 135.4602 0004166 282.2291  77.8110 15.70867358 30678
STARLINK-11673 [DTC]    
1 64318U 25124B   25356.43108373  .00239445  00000+0  18127-2 0  9993
2 64318  43.0023 134.9051 0002324 261.0889  98.9716 15.70887218 30688
STARLINK-11671 [DTC]    
1 64319U 25124C   25356.10255462  .00213609  00000+0  16221-2 0  9997
2 64319  42.9998 136.7349 0001162 296.4915  63.5834 15.70893689 30632
STARLINK-11594 [DTC]    
1 64320U 25124D   25356.52121573  .00212859  00000+0  16173-2 0  9992
2 64320  42.9997 134.7340 0001783 271.5719  88.4944 15.70882836 30693
STARLINK-11596 [DTC]    
1 64321U 25124E   25356.44701199  .00265524  00000+0  19925-2 0  9997
2 64321  43.0009 135.0310 0001826 244.8984 115.1694 15.71016951 30683
STARLINK-11747 [DTC]    
1 64322U 25124F   25356.37280844  .00199125  00000+0  15032-2 0  9997
2 64322  43.0003 135.3289 0002921 258.2130 101.8410 15.71078822 30677
STARLINK-11728 [DTC]    
1 64323U 25124G   25356.78605750  .00327286  00000+0  24245-2 0  9997
2 64323  42.9991 132.3895 0001313  60.3796 299.7202 15.71137408 30746
STARLINK-11696 [DTC]    
1 64324U 25124H   25356.09725223  .00280852  00000+0  21131-2 0  9998
2 64324  42.9997 136.6917 0001280  26.2174 333.8758 15.70907594 30633
STARLINK-11698 [DTC]    
1 64325U 25124J   25356.10346582  .00212470  00000+0  16139-2 0  9991
2 64325  43.0000 136.7394 0001252 301.5062  58.5683 15.70891352 30637
STARLINK-11678 [DTC]    
1 64326U 25124K   25356.44170074  .00209298  00000+0  15901-2 0  9990
2 64326  43.0005 134.9869 0001939 263.7436  96.3211 15.70896152 30681
STARLINK-11674 [DTC]    
1 64327U 25124L   25356.79135522  .00316511  00000+0  23706-2 0  9997
2 64327  42.9997 132.4310 0001226 298.3892  61.6852 15.70908072 30741
STARLINK-11707 [DTC]    
1 64328U 25124M   25356.42577463  .00205206  00000+0  15599-2 0  9991
2 64328  42.9979 134.8593 0001326 272.0465  88.0251 15.70896285 30688
STARLINK-11734 [DTC]    
1 64329U 25124N   25356.25002315 -.00023264  00000+0 -17852-3 0  9991
2 64329  43.0005 135.5422 0001749 258.9130 336.3974 15.70810826  6031
STARLINK-34252          
1 64330U 25124P   25356.82951806  .00021092  00000+0  77306-3 0  9999
2 64330  42.9998 195.9546 0001520 280.2839  79.7841 15.27611100 30023
